satname,norad_id,inclination_deg,eccentricity,mean_motion_rev_per_day,perigee_km,apogee_km,l1,l2
STARLINK-1008,44714,53.0544,0.0001324,15.06397649,546.3018463209655,548.1356805271198,1 44714U 19074B   25250.25575464  .00001557  00000+0  12338-3 0  9990,2 44714  53.0544 290.0892 0001324  86.7841 273.3299 15.06397649321109
STARLINK-1010,44716,53.0513,0.0011408,15.75187543,336.4288337832959,351.7662841530382,1 44716U 19074D   25250.25269209  .00106443  00000+0  68877-3 0  9998,2 44716  53.0513 245.9910 0011408   7.2283 352.8899 15.75187543321700
STARLINK-1011,44717,53.0521,0.0005521,15.64282876,371.5734118052069,379.03055913296157,1 44717U 19074E   25250.13388716  .00143568  00000+0  14554-2 0  9992,2 44717  53.0521 299.3537 0005521 355.6238   4.4727 15.64282876320967
STARLINK-1012,44718,53.0533,0.0001109,15.06402737,546.4351492153874,547.9711896649687,1 44718U 19074F   25249.43749168  .00009990  00000+0  68858-3 0  9993,2 44718  53.0533 293.7642 0001109  96.7296 263.3819 15.06402737320976
STARLINK-1015,44721,53.0456,0.0004108,15.91726817,294.70806214619734,300.19272474865465,1 44721U 19074J   25250.25001157  .00311834  47666-4  93990-3 0  9990,2 44721  53.0456 235.4712 0004108   4.5070 211.2972 15.91726817  6003
STARLINK-1017,44723,53.0533,0.0002377,15.10309268,533.6127521119424,536.8993791753501,1 44723U 19074L   25249.82804090  .00041862  00000+0  25286-2 0  9999,2 44723  53.0533 290.8892 0002377 317.8960  42.1847 15.10309268321054
STARLINK-1019,44724,53.0549,0.0001353,15.06398507,546.2791334930262,548.1531340510246,1 44724U 19074M   25249.43379117  .00000220  00000+0  33648-4 0  9990,2 44724  53.0549 293.7787 0001353  78.0528 282.0613 15.06398507320971
STARLINK-1020,44725,53.056,0.0001545,15.06406621,546.1213023841656,548.2612288182363,1 44725U 19074N   25249.90373619  .00002195  00000+0  16616-3 0  9992,2 44725  53.0560 311.6681 0001545  85.7882 274.3284 15.06406621320761
STARLINK-1021,44726,53.0445,0.0004253,15.86033734,310.56965692436006,316.26149154400446,1 44726U 19074P   25250.25001157  .00162188  00000+0  63440-3 0  9994,2 44726  53.0445 240.8249 0004253 344.0440 187.0683 15.86033734  5949
STARLINK-1029,44734,53.0528,0.0009284,15.81225209,320.74974356716666,333.1997951004669,1 44734U 19074X   25250.25001157  .00291218  00000+0  14035-2 0  9995,2 44734  53.0528 164.1350 0009284  69.4063 231.6134 15.81225209  6032
STARLINK-1030,44735,53.0399,0.000269,16.02850698,264.74115523200453,268.31598530881,1 44735U 19074Y   25250.25192981  .01480721  13061-2  24359-2 0  9996,2 44735  53.0399 258.0805 0002690 106.0246 254.1081 16.02850698321549
STARLINK-1031,44736,53.0553,0.0005757,15.35625597,455.1267546039144,462.9991066040111,1 44736U 19074Z   25249.86640797  .00100546  00000+0  28332-2 0  9999,2 44736  53.0553 294.5373 0005757 318.6533  41.4032 15.35625597321012
STARLINK-1036,44741,53.0545,0.0001215,15.06399143,546.3727543521736,548.0556146900126,1 44741U 19074AE  25250.19862362  .00000199  00000+0  32220-4 0  9993,2 44741  53.0545 310.3498 0001215  84.3522 275.7606 15.06399143320813
STARLINK-1039,44744,53.0543,0.0003632,15.08825348,537.2755842054748,542.3007650523259,1 44744U 19074AH  25250.21946492  .00020377  00000+0  12950-2 0  9992,2 44744  53.0543 329.8292 0003632 297.0640  62.9979 15.08825348320542
STARLINK-1042,44747,53.0471,0.0002756,15.40434566,442.94540802976644,446.7062251342668,1 44747U 19074AL  25250.26559099  .00019905  00000+0  49293-3 0  9999,2 44747  53.0471 248.4618 0002756 354.4816   5.6157 15.40434566321718
STARLINK-1043,44748,53.0549,0.0001062,15.0641233,546.4383005182644,547.9092365254992,1 44748U 19074AM  25249.97194814  .00008479  00000+0  58726-3 0  9991,2 44748  53.0549 331.3646 0001062  58.9967 301.1126 15.06412330320503
STARLINK-1046,44751,53.0558,0.000186,15.06404068,545.9109776194691,548.4872026449993,1 44751U 19074AQ  25250.25206300 -.00000233  00000+0  32759-5 0  9993,2 44751  53.0558 330.1098 0001860  76.6437 283.4760 15.06404068320549
STARLINK-1047,44752,53.0716,0.0004232,15.27701612,479.781470261094,485.5884699766011,1 44752U 19074AR  25250.22499716  .00014680  00000+0  54677-3 0  9997,2 44752  53.0716 279.9580 0004232  21.7401 338.3776 15.27701612321254
STARLINK-1048,44753,53.0548,0.0001101,15.06421928,546.3818791147987,547.906826068639,1 44753U 19074AS  25250.27786504 -.00009150  00000+0 -59583-3 0  9996,2 44753  53.0548 289.9925 0001101  81.8966 278.2148 15.06421928321102
STARLINK-1053,44758,53.0417,0.0003131,15.54124192,402.5759844703043,406.82339680598216,1 44758U 19074AX  25250.23710799  .00043461  00000+0  66101-3 0  9995,2 44758  53.0417 268.0591 0003131  38.5173 321.6060 15.54124192321420
STARLINK-1054,44759,53.0468,0.0010278,15.60774133,378.46812132885225,392.37128849146575,1 44759U 19074AY  25250.11039331  .00176469  00000+0  20378-2 0  9999,2 44759  53.0468 299.2164 0010278 318.9668  41.0571 15.60774133318613
STARLINK-1056,44761,53.0448,0.0011538,15.72391215,344.299737025146,359.8303512622124,1 44761U 19074BA  25250.00002315  .00200675  00000+0  14443-2 0  9995,2 44761  53.0448 290.3887 0011538 344.7152 121.7967 15.72391215  5979
STARLINK-1057,44762,53.0445,0.0005313,15.87561997,305.5675396434899,312.673419441252,1 44762U 19074BB  25250.25001157  .00329396  00000+0  11701-2 0  9992,2 44762  53.0445 261.7133 0005313 341.9091 167.4704 15.87561997  6056
STARLINK-1060,44765,53.0542,0.00015,15.14718365,520.7987166695693,522.8687078832527,1 44765U 19074BE  25250.25001157  .00053397  00000+0  28439-2 0  9996,2 44765  53.0542 309.8874 0001500 115.6727 120.5883 15.14718365  5846
STARLINK-1063,44768,53.0564,0.0001676,15.0642962,545.96010518816,548.2814515954769,1 44768U 19074BH  25249.51119066  .00012316  00000+0  84361-3 0  9998,2 44768  53.0564 333.4289 0001676  87.8353 272.2828 15.06429620320449
STARLINK-1067,44771,53.0556,0.0002099,15.06398176,545.7635164054982,548.67078007693,1 44771U 19074BL  25250.22994503 -.00003134  00000+0 -19155-3 0  9998,2 44771  53.0556 330.2058 0002099  77.2835 282.8389 15.06398176320542
STARLINK-1068,44772,53.0548,0.0001267,15.06410803,546.3010110297373,548.055885964387,1 44772U 19074BM  25249.88899445  .00005596  00000+0  39418-3 0  9994,2 44772  53.0548 311.7370 0001267  89.3824 270.7310 15.06410803320769
STARLINK-1098,44917,53.0415,0.0005224,16.08873952,246.47163451290635,253.39664323880424,1 44917U 20001D   25248.31241359  .00726560  29019-3  81043-3 0  9996,2 44917  53.0415  43.9726 0005224 340.0748  20.0081 16.08873952312674
STARLINK-1104,44922,53.0427,0.0003766,16.11145771,241.20821848766536,246.19578762476795,1 44922U 20001J   25248.35439475  .00843054  41633-3  81184-3 0  9994,2 44922  53.0427  44.7765 0003766 330.7957  29.2866 16.11145771312668
STARLINK-1112,44925,53.0527,0.0005556,15.44913993,427.84729142490687,435.4143054025044,1 44925U 20001M   25250.19772850  .00099811  00000+0  20708-2 0  9996,2 44925  53.0527  64.4962 0005556 118.2075 241.9492 15.44913993312559
STARLINK-1114,44927,53.0543,0.0001285,15.06399555,546.3230143345718,548.1028292644733,1 44927U 20001P   25250.25943620  .00000412  00000+0  46555-4 0  9999,2 44927  53.0543  90.0696 0001285  85.9381 274.1755 15.06399555312205
STARLINK-1123,44930,53.054,0.0001305,15.06408495,546.2817675199985,548.0892766982688,1 44930U 20001S   25250.27418788  .00002016  00000+0  15415-3 0  9999,2 44930  53.0540  90.0007 0001305  95.8337 264.2801 15.06408495312202
STARLINK-1144,44933,53.0491,0.0009075,15.47518981,417.8136595817741,430.15951389170095,1 44933U 20001V   25250.16463265  .00130740  00000+0  24657-2 0  9993,2 44933  53.0491  43.5120 0009075 233.5516 126.4655 15.47518981314149
STARLINK-1071,44934,53.0383,0.0004023,16.05582763,256.3185918374429,261.658823181705,1 44934U 20001W   25248.34379140  .00608247  19051-3  83546-3 0  9994,2 44934  53.0383  21.6571 0004023 349.0134  11.0809 16.05582763312988
STARLINK-1091,44940,53.0439,0.0003444,15.70647705,354.7251361523231,359.3643293298346,1 44940U 20001AC  25250.25001157  .00268220  00000+0  20655-2 0  9998,2 44940  53.0439  31.1855 0003444 204.3480 348.3203 15.70647705  5859
STARLINK-1094,44941,53.0536,0.0001114,15.06398084,546.4459457250214,547.9889146920723,1 44941U 20001AD  25250.22074677 -.00000285  00000+0 -23457-6 0  9997,2 44941  53.0536  70.2439 0001114 107.7437 252.3674 15.06398084312477
STARLINK-1096,44942,52.9944,0.0003234,15.73267037,347.3913154747361,351.74279445748834,1 44942U 20001AE  25250.18395218  .00093807  00000+0  66319-3 0  9991,2 44942  52.9944 218.3825 0003234  82.0066 278.1318 15.73267037315427
STARLINK-1122,44949,53.0537,0.0001237,15.06408531,546.3287493930229,548.0420741576963,1 44949U 20001AM  25249.77842780  .00005033  00000+0  35646-3 0  9995,2 44949  53.0537  72.2255 0001237  97.9512 262.1617 15.06408531312402
STARLINK-1066,44954,53.0447,0.0003912,15.98522017,275.9145923096239,281.1227597105344,1 44954U 20001AS  25250.25001157  .00589516  16160-3  12271-2 0  9990,2 44954  53.0447 357.6941 0003912 346.4209 112.2924 15.98522017  6062
STARLINK-1080,44961,53.0538,0.0001015,15.06384136,546.5572514264459,547.9631070538308,1 44961U 20001AZ  25250.17466669  .00005887  00000+0  41395-3 0  9998,2 44961  53.0538  50.4508 0001015  90.2099 269.9006 15.06384136312755
STARLINK-1090,44968,53.0553,0.0001295,15.06399408,546.3165394603911,548.1102052068245,1 44968U 20001BG  25250.17834662 -.00000535  00000+0 -17042-4 0  9997,2 44968  53.0553  50.4353 0001295  99.2733 260.8403 15.06399408312750
STARLINK-1107,44972,53.016,0.0006519,15.53262174,402.7856173579212,411.63235145238923,1 44972U 20001BL  25250.21042602  .00084557  00000+0  13123-2 0  9990,2 44972  53.0160 345.5862 0006519   3.7897 356.3160 15.53262174313660
STARLINK-1115,44973,53.0221,0.0008556,16.11789986,236.2732982589905,247.6015696303557,1 44973U 20001BM  25248.33440032  .00884637  46871-3  81234-3 0  9996,2 44973  53.0221 306.2675 0008556 358.2374   1.8628 16.11789986314040
